{
  "fetched_at": "2026-06-16T16:21:03.841493+00:00",
  "satellites": {
    "57166": {
      "name": "Meteor M2-3",
      "tle_line1": "1 57166U 23091A   26167.32558627 -.00000004  00000+0  17128-4 0  9997",
      "tle_line2": "2 57166  98.6090 222.3216 0004310 157.6976 202.4391 14.24046713154391"
    },
    "59051": {
      "name": "Meteor M2-4",
      "tle_line1": "1 59051U 24039A   26167.26898670  .00000000  00000+0  19811-4 0  9999",
      "tle_line2": "2 59051  98.7010 126.5785 0007231 163.5389 196.6025 14.22429447119132"
    },
    "38771": {
      "name": "MetOp-B",
      "tle_line1": "1 38771U 12049A   26167.27453775  .00000094  00000+0  62920-4 0  9999",
      "tle_line2": "2 38771  98.6505 218.7919 0002289  21.9428 338.1847 14.21432528713136"
    },
    "43689": {
      "name": "MetOp-C",
      "tle_line1": "1 43689U 18087A   26167.22339829  .00000087  00000+0  59576-4 0  9994",
      "tle_line2": "2 43689  98.6645 226.8446 0001728 130.8288 229.3040 14.21511898394691"
    },
    "60543": {
      "name": "Arctic Weather Satellite",
      "tle_line1": "1 60543U 24149CD  26167.14620920  .00000799  00000+0  88815-4 0  9992",
      "tle_line2": "2 60543  97.6801 237.6417 0003626 106.0918 254.0700 14.89805236 99140"
    }
  }
}